CCSDS_OMM_VERS = 2.0
CREATION_DATE  = 
ORIGINATOR     = 

OBJECT_NAME    = UNKNOWN
OBJECT_ID      = 
CENTER_NAME    = EARTH
REF_FRAME      = TEME
TIME_SYSTEM    = UTC
MEAN_ELEMENT_THEORY = SGP/SGP4

EPOCH          = 2026-03-09T16:02:32.153280
MEAN_MOTION    = 14.40795788
ECCENTRICITY   = .0013903
INCLINATION    = 74.0441
RA_OF_ASC_NODE = 62.0647
ARG_OF_PERICENTER = 268.6364
MEAN_ANOMALY   = 215.7096

EPHEMERIS_TYPE = 0
CLASSIFICATION_TYPE = U
NORAD_CAT_ID   = 85100
ELEMENT_SET_NO = 999
REV_AT_EPOCH   = 64586
BSTAR          = .1568E-3
MEAN_MOTION_DOT = .476E-5
MEAN_MOTION_DDOT = 0

CCSDS_OMM_VERS = 2.0
CREATION_DATE  = 
ORIGINATOR     = 

OBJECT_NAME    = UNKNOWN
OBJECT_ID      = 
CENTER_NAME    = EARTH
REF_FRAME      = TEME
TIME_SYSTEM    = UTC
MEAN_ELEMENT_THEORY = SGP/SGP4

EPOCH          = 2026-03-09T06:26:29.922432
MEAN_MOTION    = 13.73031550
ECCENTRICITY   = .0010845
INCLINATION    = 100.0524
RA_OF_ASC_NODE = 178.3831
ARG_OF_PERICENTER = 151.0385
MEAN_ANOMALY   = 237.6955

EPHEMERIS_TYPE = 0
CLASSIFICATION_TYPE = U
NORAD_CAT_ID   = 85106
ELEMENT_SET_NO = 999
REV_AT_EPOCH   = 61494
BSTAR          = .87414E-3
MEAN_MOTION_DOT = .759E-5
MEAN_MOTION_DDOT = 0

CCSDS_OMM_VERS = 2.0
CREATION_DATE  = 
ORIGINATOR     = 

OBJECT_NAME    = UNKNOWN
OBJECT_ID      = 
CENTER_NAME    = EARTH
REF_FRAME      = TEME
TIME_SYSTEM    = UTC
MEAN_ELEMENT_THEORY = SGP/SGP4

EPOCH          = 2026-03-08T10:50:28.822272
MEAN_MOTION    = 14.83080407
ECCENTRICITY   = .000647
INCLINATION    = 98.3991
RA_OF_ASC_NODE = 300.5434
ARG_OF_PERICENTER = 230.0721
MEAN_ANOMALY   = 129.9923

EPHEMERIS_TYPE = 0
CLASSIFICATION_TYPE = U
NORAD_CAT_ID   = 85151
ELEMENT_SET_NO = 999
REV_AT_EPOCH   = 49221
BSTAR          = .48354E-2
MEAN_MOTION_DOT = .39543E-3
MEAN_MOTION_DDOT = 0

CCSDS_OMM_VERS = 2.0
CREATION_DATE  = 
ORIGINATOR     = 

OBJECT_NAME    = UNKNOWN
OBJECT_ID      = 
CENTER_NAME    = EARTH
REF_FRAME      = TEME
TIME_SYSTEM    = UTC
MEAN_ELEMENT_THEORY = SGP/SGP4

EPOCH          = 2026-03-08T15:32:05.156160
MEAN_MOTION    = 13.71670730
ECCENTRICITY   = .0216769
INCLINATION    = 99.8613
RA_OF_ASC_NODE = 216.0055
ARG_OF_PERICENTER = 94.9429
MEAN_ANOMALY   = 331.7966

EPHEMERIS_TYPE = 0
CLASSIFICATION_TYPE = U
NORAD_CAT_ID   = 85210
ELEMENT_SET_NO = 999
REV_AT_EPOCH   = 61393
BSTAR          = .37858E-3
MEAN_MOTION_DOT = .359E-5
MEAN_MOTION_DDOT = 0

CCSDS_OMM_VERS = 2.0
CREATION_DATE  = 
ORIGINATOR     = 

OBJECT_NAME    = UNKNOWN
OBJECT_ID      = 
CENTER_NAME    = EARTH
REF_FRAME      = TEME
TIME_SYSTEM    = UTC
MEAN_ELEMENT_THEORY = SGP/SGP4

EPOCH          = 2026-03-09T00:57:10.614816
MEAN_MOTION    = 14.37645313
ECCENTRICITY   = .0206434
INCLINATION    = 98.0223
RA_OF_ASC_NODE = 161.7978
ARG_OF_PERICENTER = 227.1377
MEAN_ANOMALY   = 131.2313

EPHEMERIS_TYPE = 0
CLASSIFICATION_TYPE = U
NORAD_CAT_ID   = 85217
ELEMENT_SET_NO = 999
REV_AT_EPOCH   = 64025
BSTAR          = .10494E-2
MEAN_MOTION_DOT = .3986E-4
MEAN_MOTION_DDOT = 0

CCSDS_OMM_VERS = 2.0
CREATION_DATE  = 
ORIGINATOR     = 

OBJECT_NAME    = UNKNOWN
OBJECT_ID      = 
CENTER_NAME    = EARTH
REF_FRAME      = TEME
TIME_SYSTEM    = UTC
MEAN_ELEMENT_THEORY = SGP/SGP4

EPOCH          = 2026-02-23T08:31:05.057760
MEAN_MOTION    = 14.01835433
ECCENTRICITY   = .0516167
INCLINATION    = 65.5338
RA_OF_ASC_NODE = 24.2147
ARG_OF_PERICENTER = 354.4749
MEAN_ANOMALY   = 5.0755

EPHEMERIS_TYPE = 0
CLASSIFICATION_TYPE = U
NORAD_CAT_ID   = 85237
ELEMENT_SET_NO = 999
REV_AT_EPOCH   = 61852
BSTAR          = .26977E-2
MEAN_MOTION_DOT = .13478E-3
MEAN_MOTION_DDOT = 0

CCSDS_OMM_VERS = 2.0
CREATION_DATE  = 
ORIGINATOR     = 

OBJECT_NAME    = UNKNOWN
OBJECT_ID      = 
CENTER_NAME    = EARTH
REF_FRAME      = TEME
TIME_SYSTEM    = UTC
MEAN_ELEMENT_THEORY = SGP/SGP4

EPOCH          = 2026-03-09T14:43:13.254240
MEAN_MOTION    = 13.88360892
ECCENTRICITY   = .0062884
INCLINATION    = 99.0684
RA_OF_ASC_NODE = 0.3390
ARG_OF_PERICENTER = 326.6032
MEAN_ANOMALY   = 157.2792

EPHEMERIS_TYPE = 0
CLASSIFICATION_TYPE = U
NORAD_CAT_ID   = 85238
ELEMENT_SET_NO = 999
REV_AT_EPOCH   = 62289
BSTAR          = .1021E-3
MEAN_MOTION_DOT = .81E-6
MEAN_MOTION_DDOT = 0

CCSDS_OMM_VERS = 2.0
CREATION_DATE  = 
ORIGINATOR     = 

OBJECT_NAME    = UNKNOWN
OBJECT_ID      = 
CENTER_NAME    = EARTH
REF_FRAME      = TEME
TIME_SYSTEM    = UTC
MEAN_ELEMENT_THEORY = SGP/SGP4

EPOCH          = 2026-03-07T10:23:49.943616
MEAN_MOTION    = 14.21778105
ECCENTRICITY   = .022368
INCLINATION    = 97.9910
RA_OF_ASC_NODE = 67.0040
ARG_OF_PERICENTER = 54.3402
MEAN_ANOMALY   = 307.8378

EPHEMERIS_TYPE = 0
CLASSIFICATION_TYPE = U
NORAD_CAT_ID   = 85246
ELEMENT_SET_NO = 999
REV_AT_EPOCH   = 63510
BSTAR          = .10435E-2
MEAN_MOTION_DOT = .2923E-4
MEAN_MOTION_DDOT = 0

CCSDS_OMM_VERS = 2.0
CREATION_DATE  = 
ORIGINATOR     = 

OBJECT_NAME    = UNKNOWN
OBJECT_ID      = 
CENTER_NAME    = EARTH
REF_FRAME      = TEME
TIME_SYSTEM    = UTC
MEAN_ELEMENT_THEORY = SGP/SGP4

EPOCH          = 2026-03-09T08:55:27.255072
MEAN_MOTION    = 14.00429944
ECCENTRICITY   = .0050207
INCLINATION    = 100.4232
RA_OF_ASC_NODE = 121.4625
ARG_OF_PERICENTER = 11.4206
MEAN_ANOMALY   = 50.7620

EPHEMERIS_TYPE = 0
CLASSIFICATION_TYPE = U
NORAD_CAT_ID   = 85373
ELEMENT_SET_NO = 999
REV_AT_EPOCH   = 62425
BSTAR          = .17619E-2
MEAN_MOTION_DOT = .2586E-4
MEAN_MOTION_DDOT = 0

CCSDS_OMM_VERS = 2.0
CREATION_DATE  = 
ORIGINATOR     = 

OBJECT_NAME    = UNKNOWN
OBJECT_ID      = 
CENTER_NAME    = EARTH
REF_FRAME      = TEME
TIME_SYSTEM    = UTC
MEAN_ELEMENT_THEORY = SGP/SGP4

EPOCH          = 2026-03-08T09:53:35.190240
MEAN_MOTION    = 13.52339017
ECCENTRICITY   = .0053897
INCLINATION    = 100.4830
RA_OF_ASC_NODE = 41.4529
ARG_OF_PERICENTER = 30.2380
MEAN_ANOMALY   = 121.3559

EPHEMERIS_TYPE = 0
CLASSIFICATION_TYPE = U
NORAD_CAT_ID   = 87014
ELEMENT_SET_NO = 999
REV_AT_EPOCH   = 60249
BSTAR          = .51883E-2
MEAN_MOTION_DOT = .3408E-4
MEAN_MOTION_DDOT = 0

CCSDS_OMM_VERS = 2.0
CREATION_DATE  = 
ORIGINATOR     = 

OBJECT_NAME    = UNKNOWN
OBJECT_ID      = 
CENTER_NAME    = EARTH
REF_FRAME      = TEME
TIME_SYSTEM    = UTC
MEAN_ELEMENT_THEORY = SGP/SGP4

EPOCH          = 2026-03-03T21:05:30.884352
MEAN_MOTION    = 14.04698837
ECCENTRICITY   = .0081356
INCLINATION    = 98.7477
RA_OF_ASC_NODE = 100.2460
ARG_OF_PERICENTER = 23.6181
MEAN_ANOMALY   = 336.8689

EPHEMERIS_TYPE = 0
CLASSIFICATION_TYPE = U
NORAD_CAT_ID   = 87029
ELEMENT_SET_NO = 999
REV_AT_EPOCH   = 60439
BSTAR          = .92545E-3
MEAN_MOTION_DOT = .1484E-4
MEAN_MOTION_DDOT = 0

CCSDS_OMM_VERS = 2.0
CREATION_DATE  = 
ORIGINATOR     = 

OBJECT_NAME    = UNKNOWN
OBJECT_ID      = 
CENTER_NAME    = EARTH
REF_FRAME      = TEME
TIME_SYSTEM    = UTC
MEAN_ELEMENT_THEORY = SGP/SGP4

EPOCH          = 2026-03-06T13:55:37.456032
MEAN_MOTION    = 14.07270112
ECCENTRICITY   = .0043131
INCLINATION    = 98.7028
RA_OF_ASC_NODE = 110.7446
ARG_OF_PERICENTER = 216.9306
MEAN_ANOMALY   = 142.8892

EPHEMERIS_TYPE = 0
CLASSIFICATION_TYPE = U
NORAD_CAT_ID   = 87042
ELEMENT_SET_NO = 999
REV_AT_EPOCH   = 56575
BSTAR          = .45797E-3
MEAN_MOTION_DOT = .733E-5
MEAN_MOTION_DDOT = 0

